CCSDS_OMM_VERS = 2.0
CREATION_DATE  = 
ORIGINATOR     = 

OBJECT_NAME    = STARLINK-35893
OBJECT_ID      = 2025-268J
CENTER_NAME    = EARTH
REF_FRAME      = TEME
TIME_SYSTEM    = UTC
MEAN_ELEMENT_THEORY = SGP/SGP4

EPOCH          = 2025-12-21T04:00:01.998720
MEAN_MOTION    = 15.56333351
ECCENTRICITY   = .0001644
INCLINATION    = 43.0004
RA_OF_ASC_NODE = 71.8209
ARG_OF_PERICENTER = 251.4728
MEAN_ANOMALY   = 181.8891

EPHEMERIS_TYPE = 0
CLASSIFICATION_TYPE = U
NORAD_CAT_ID   = 66565
ELEMENT_SET_NO = 999
REV_AT_EPOCH   = 602
BSTAR          = .14403E-2
MEAN_MOTION_DOT = .105203E-2
MEAN_MOTION_DDOT = 0

CCSDS_OMM_VERS = 2.0
CREATION_DATE  = 
ORIGINATOR     = 

OBJECT_NAME    = STARLINK-35871
OBJECT_ID      = 2025-268K
CENTER_NAME    = EARTH
REF_FRAME      = TEME
TIME_SYSTEM    = UTC
MEAN_ELEMENT_THEORY = SGP/SGP4

EPOCH          = 2025-12-21T04:00:01.998720
MEAN_MOTION    = 15.56407352
ECCENTRICITY   = .0001567
INCLINATION    = 43.0005
RA_OF_ASC_NODE = 71.8181
ARG_OF_PERICENTER = 251.1764
MEAN_ANOMALY   = 184.0834

EPHEMERIS_TYPE = 0
CLASSIFICATION_TYPE = U
NORAD_CAT_ID   = 66566
ELEMENT_SET_NO = 999
REV_AT_EPOCH   = 602
BSTAR          = -.44084E-3
MEAN_MOTION_DOT = -.32214E-3
MEAN_MOTION_DDOT = 0

CCSDS_OMM_VERS = 2.0
CREATION_DATE  = 
ORIGINATOR     = 

OBJECT_NAME    = STARLINK-35825
OBJECT_ID      = 2025-268L
CENTER_NAME    = EARTH
REF_FRAME      = TEME
TIME_SYSTEM    = UTC
MEAN_ELEMENT_THEORY = SGP/SGP4

EPOCH          = 2025-12-21T04:00:01.998720
MEAN_MOTION    = 15.56335611
ECCENTRICITY   = .0001549
INCLINATION    = 43.0002
RA_OF_ASC_NODE = 71.8110
ARG_OF_PERICENTER = 252.8569
MEAN_ANOMALY   = 184.3432

EPHEMERIS_TYPE = 0
CLASSIFICATION_TYPE = U
NORAD_CAT_ID   = 66567
ELEMENT_SET_NO = 999
REV_AT_EPOCH   = 602
BSTAR          = .14118E-2
MEAN_MOTION_DOT = .103097E-2
MEAN_MOTION_DDOT = 0

CCSDS_OMM_VERS = 2.0
CREATION_DATE  = 
ORIGINATOR     = 

OBJECT_NAME    = STARLINK-35803
OBJECT_ID      = 2025-268M
CENTER_NAME    = EARTH
REF_FRAME      = TEME
TIME_SYSTEM    = UTC
MEAN_ELEMENT_THEORY = SGP/SGP4

EPOCH          = 2025-12-21T04:00:01.998720
MEAN_MOTION    = 15.53315635
ECCENTRICITY   = .0001729
INCLINATION    = 43.0005
RA_OF_ASC_NODE = 71.8405
ARG_OF_PERICENTER = 227.8345
MEAN_ANOMALY   = 197.2472

EPHEMERIS_TYPE = 0
CLASSIFICATION_TYPE = U
NORAD_CAT_ID   = 66568
ELEMENT_SET_NO = 999
REV_AT_EPOCH   = 602
BSTAR          = .19133E-1
MEAN_MOTION_DOT = .1380654E-1
MEAN_MOTION_DDOT = 0

CCSDS_OMM_VERS = 2.0
CREATION_DATE  = 
ORIGINATOR     = 

OBJECT_NAME    = STARLINK-35835
OBJECT_ID      = 2025-268N
CENTER_NAME    = EARTH
REF_FRAME      = TEME
TIME_SYSTEM    = UTC
MEAN_ELEMENT_THEORY = SGP/SGP4

EPOCH          = 2025-12-19T14:38:53.453760
MEAN_MOTION    = 15.51068809
ECCENTRICITY   = .000157
INCLINATION    = 43.0021
RA_OF_ASC_NODE = 80.9616
ARG_OF_PERICENTER = 180.5459
MEAN_ANOMALY   = 179.5399

EPHEMERIS_TYPE = 0
CLASSIFICATION_TYPE = U
NORAD_CAT_ID   = 66569
ELEMENT_SET_NO = 999
REV_AT_EPOCH   = 569
BSTAR          = .1158E-1
MEAN_MOTION_DOT = .75028E-2
MEAN_MOTION_DDOT = 0

CCSDS_OMM_VERS = 2.0
CREATION_DATE  = 
ORIGINATOR     = 

OBJECT_NAME    = STARLINK-35834
OBJECT_ID      = 2025-268P
CENTER_NAME    = EARTH
REF_FRAME      = TEME
TIME_SYSTEM    = UTC
MEAN_ELEMENT_THEORY = SGP/SGP4

EPOCH          = 2025-12-19T14:38:22.069824
MEAN_MOTION    = 15.51084950
ECCENTRICITY   = .0001238
INCLINATION    = 43.0034
RA_OF_ASC_NODE = 80.9577
ARG_OF_PERICENTER = 245.0703
MEAN_ANOMALY   = 115.0029

EPHEMERIS_TYPE = 0
CLASSIFICATION_TYPE = U
NORAD_CAT_ID   = 66570
ELEMENT_SET_NO = 999
REV_AT_EPOCH   = 569
BSTAR          = .72465E-2
MEAN_MOTION_DOT = .458871E-2
MEAN_MOTION_DDOT = 0

CCSDS_OMM_VERS = 2.0
CREATION_DATE  = 
ORIGINATOR     = 

OBJECT_NAME    = STARLINK-35836
OBJECT_ID      = 2025-268Q
CENTER_NAME    = EARTH
REF_FRAME      = TEME
TIME_SYSTEM    = UTC
MEAN_ELEMENT_THEORY = SGP/SGP4

EPOCH          = 2025-12-21T04:00:01.998720
MEAN_MOTION    = 15.56452081
ECCENTRICITY   = .0001871
INCLINATION    = 43.0002
RA_OF_ASC_NODE = 71.7933
ARG_OF_PERICENTER = 261.8616
MEAN_ANOMALY   = 182.8736

EPHEMERIS_TYPE = 0
CLASSIFICATION_TYPE = U
NORAD_CAT_ID   = 66571
ELEMENT_SET_NO = 999
REV_AT_EPOCH   = 602
BSTAR          = -.20238E-2
MEAN_MOTION_DOT = -.144772E-2
MEAN_MOTION_DDOT = 0

CCSDS_OMM_VERS = 2.0
CREATION_DATE  = 
ORIGINATOR     = 

OBJECT_NAME    = STARLINK-35870
OBJECT_ID      = 2025-268R
CENTER_NAME    = EARTH
REF_FRAME      = TEME
TIME_SYSTEM    = UTC
MEAN_ELEMENT_THEORY = SGP/SGP4

EPOCH          = 2025-12-21T04:00:01.998720
MEAN_MOTION    = 15.56395037
ECCENTRICITY   = .0001256
INCLINATION    = 43.0008
RA_OF_ASC_NODE = 71.7894
ARG_OF_PERICENTER = 249.4300
MEAN_ANOMALY   = 197.2221

EPHEMERIS_TYPE = 0
CLASSIFICATION_TYPE = U
NORAD_CAT_ID   = 66572
ELEMENT_SET_NO = 999
REV_AT_EPOCH   = 602
BSTAR          = .51741E-3
MEAN_MOTION_DOT = .3732E-3
MEAN_MOTION_DDOT = 0

CCSDS_OMM_VERS = 2.0
CREATION_DATE  = 
ORIGINATOR     = 

OBJECT_NAME    = STARLINK-35650
OBJECT_ID      = 2025-268S
CENTER_NAME    = EARTH
REF_FRAME      = TEME
TIME_SYSTEM    = UTC
MEAN_ELEMENT_THEORY = SGP/SGP4

EPOCH          = 2025-12-19T14:36:55.904832
MEAN_MOTION    = 15.50859773
ECCENTRICITY   = .0003722
INCLINATION    = 43.0011
RA_OF_ASC_NODE = 80.9506
ARG_OF_PERICENTER = 102.7500
MEAN_ANOMALY   = 257.3776

EPHEMERIS_TYPE = 0
CLASSIFICATION_TYPE = U
NORAD_CAT_ID   = 66573
ELEMENT_SET_NO = 999
REV_AT_EPOCH   = 569
BSTAR          = .63018E-2
MEAN_MOTION_DOT = .392409E-2
MEAN_MOTION_DDOT = 0

CCSDS_OMM_VERS = 2.0
CREATION_DATE  = 
ORIGINATOR     = 

OBJECT_NAME    = STARLINK-35812
OBJECT_ID      = 2025-268T
CENTER_NAME    = EARTH
REF_FRAME      = TEME
TIME_SYSTEM    = UTC
MEAN_ELEMENT_THEORY = SGP/SGP4

EPOCH          = 2025-12-21T04:00:01.998720
MEAN_MOTION    = 15.56333604
ECCENTRICITY   = .0001655
INCLINATION    = 43.0006
RA_OF_ASC_NODE = 71.7775
ARG_OF_PERICENTER = 257.5125
MEAN_ANOMALY   = 193.1080

EPHEMERIS_TYPE = 0
CLASSIFICATION_TYPE = U
NORAD_CAT_ID   = 66574
ELEMENT_SET_NO = 999
REV_AT_EPOCH   = 602
BSTAR          = .14278E-2
MEAN_MOTION_DOT = .104274E-2
MEAN_MOTION_DDOT = 0

CCSDS_OMM_VERS = 2.0
CREATION_DATE  = 
ORIGINATOR     = 

OBJECT_NAME    = STARLINK-35810
OBJECT_ID      = 2025-268U
CENTER_NAME    = EARTH
REF_FRAME      = TEME
TIME_SYSTEM    = UTC
MEAN_ELEMENT_THEORY = SGP/SGP4

EPOCH          = 2025-12-21T04:00:01.998720
MEAN_MOTION    = 15.56331106
ECCENTRICITY   = .0001644
INCLINATION    = 43.0012
RA_OF_ASC_NODE = 71.7716
ARG_OF_PERICENTER = 253.3330
MEAN_ANOMALY   = 199.2036

EPHEMERIS_TYPE = 0
CLASSIFICATION_TYPE = U
NORAD_CAT_ID   = 66575
ELEMENT_SET_NO = 999
REV_AT_EPOCH   = 602
BSTAR          = .14739E-2
MEAN_MOTION_DOT = .107689E-2
MEAN_MOTION_DDOT = 0

CCSDS_OMM_VERS = 2.0
CREATION_DATE  = 
ORIGINATOR     = 

OBJECT_NAME    = STARLINK-35814
OBJECT_ID      = 2025-268V
CENTER_NAME    = EARTH
REF_FRAME      = TEME
TIME_SYSTEM    = UTC
MEAN_ELEMENT_THEORY = SGP/SGP4

EPOCH          = 2025-12-21T04:00:01.998720
MEAN_MOTION    = 15.56319728
ECCENTRICITY   = .0001651
INCLINATION    = 43.0008
RA_OF_ASC_NODE = 71.7673
ARG_OF_PERICENTER = 253.6368
MEAN_ANOMALY   = 200.8387

EPHEMERIS_TYPE = 0
CLASSIFICATION_TYPE = U
NORAD_CAT_ID   = 66576
ELEMENT_SET_NO = 999
REV_AT_EPOCH   = 602
BSTAR          = .15273E-2
MEAN_MOTION_DOT = .111612E-2
MEAN_MOTION_DDOT = 0

