STARLINK-35893          
1 66565U 25268J   25355.16668980  .00105203  00000+0  14403-2 0  9999
2 66565  43.0004  71.8209 0001644 251.4728 181.8891 15.56333351  6021
STARLINK-35871          
1 66566U 25268K   25355.16668980 -.00032214  00000+0 -44084-3 0  9992
2 66566  43.0005  71.8181 0001567 251.1764 184.0834 15.56407352  6028
STARLINK-35825          
1 66567U 25268L   25355.16668980  .00103097  00000+0  14118-2 0  9993
2 66567  43.0002  71.8110 0001549 252.8569 184.3432 15.56335611  6024
STARLINK-35803          
1 66568U 25268M   25355.16668980  .01380654  00000+0  19133-1 0  9992
2 66568  43.0005  71.8405 0001729 227.8345 197.2472 15.53315635  6027
STARLINK-35835          
1 66569U 25268N   25353.61034090  .00750280  00000+0  11580-1 0  9993
2 66569  43.0021  80.9616 0001570 180.5459 179.5399 15.51068809  5695
STARLINK-35834          
1 66570U 25268P   25353.60997766  .00458871  00000+0  72465-2 0  9993
2 66570  43.0034  80.9577 0001238 245.0703 115.0029 15.51084950  5697
STARLINK-35836          
1 66571U 25268Q   25355.16668980 -.00144772  00000+0 -20238-2 0  9995
2 66571  43.0002  71.7933 0001871 261.8616 182.8736 15.56452081  6023
STARLINK-35870          
1 66572U 25268R   25355.16668980  .00037320  00000+0  51741-3 0  9998
2 66572  43.0008  71.7894 0001256 249.4300 197.2221 15.56395037  6021
STARLINK-35650          
1 66573U 25268S   25353.60898038  .00392409  00000+0  63018-2 0  9996
2 66573  43.0011  80.9506 0003722 102.7500 257.3776 15.50859773  5692
STARLINK-35812          
1 66574U 25268T   25355.16668980  .00104274  00000+0  14278-2 0  9996
2 66574  43.0006  71.7775 0001655 257.5125 193.1080 15.56333604  6027
STARLINK-35810          
1 66575U 25268U   25355.16668980  .00107689  00000+0  14739-2 0  9992
2 66575  43.0012  71.7716 0001644 253.3330 199.2036 15.56331106  6023
STARLINK-35814          
1 66576U 25268V   25355.16668980  .00111612  00000+0  15273-2 0  9998
2 66576  43.0008  71.7673 0001651 253.6368 200.8387 15.56319728  6027
